ONEWEB-0328             
1 49197U 21083M   26073.45648733 -.00000175  00000+0 -51495-3 0  9993
2 49197  87.9035 339.0515 0001741  75.7549 284.3774 13.13470994218467
ONEWEB-0331             
1 49198U 21083N   26073.52934686 -.00000035  00000+0 -12187-3 0  9997
2 49198  87.9254 354.2498 0001684  68.6148 291.5164 13.18687044217533
ONEWEB-0333             
1 49199U 21083P   26073.22287534 -.00000218  00000+0 -63093-3 0  9993
2 49199  87.9024 339.1349 0001711  79.5604 280.5718 13.13470683218443
ONEWEB-0334             
1 49200U 21083Q   26073.59806382  .00000031  00000+0  44112-4 0  9997
2 49200  87.9151 293.3405 0002281 108.8828 251.2553 13.20770576224304
ONEWEB-0335             
1 49201U 21083R   26073.44633196 -.00000139  00000+0 -41420-3 0  9992
2 49201  87.9029 339.0844 0001624  72.8286 287.3021 13.13470132218481
ONEWEB-0336             
1 49202U 21083S   26073.26520313  .00000362  00000+0  95641-3 0  9999
2 49202  87.9031 339.1164 0001622  67.0952 293.0348 13.13469854218457
ONEWEB-0337             
1 49203U 21083T   26073.19905483  .00000195  00000+0  49982-3 0  9998
2 49203  87.9023 339.1392 0001836  73.8200 286.3131 13.13469518218441
ONEWEB-0338             
1 49204U 21083U   26073.57280777  .00000002  00000+0 -26087-4 0  9993
2 49204  87.9155 293.3503 0001861  95.6299 264.5046 13.20770171224326
ONEWEB-0339             
1 49205U 21083V   26073.43617839  .00000074  00000+0  16861-3 0  9998
2 49205  87.9033 339.0803 0001954  84.2728 275.8624 13.13471114218458
ONEWEB-0340             
1 49206U 21083W   26073.51614803  .00000083  00000+0  17834-3 0  9997
2 49206  87.9253 354.2578 0001710  76.1132 284.0190 13.18686575217497
ONEWEB-0341             
1 49207U 21083X   26073.52274774 -.00000018  00000+0 -78492-4 0  9996
2 49207  87.9247 354.2659 0002205  69.4729 290.6640 13.18686681217512
ONEWEB-0342             
1 49208U 21083Y   26073.57911621  .00000082  00000+0  16912-3 0  9998
2 49208  87.9169 293.3277 0001744  88.5924 271.5409 13.20769906224290
ONEWEB-0343             
1 49209U 21083Z   26073.53098990  .00000107  00000+0  23895-3 0  9996
2 49209  87.9247 354.2588 0002354  78.3187 281.8209 13.18686395217567
ONEWEB-0344             
1 49210U 21083AA  26073.65963127  .00000126  00000+0  30881-3 0  9998
2 49210  87.9023 339.0589 0001987  70.3427 289.7916 13.13470491218480
ONEWEB-0345             
1 49211U 21083AB  26073.27028201  .00000353  00000+0  93309-3 0  9998
2 49211  87.9033 339.1044 0001995  71.3854 288.7492 13.13469425218442
ONEWEB-0346             
1 49212U 21083AC  26073.52767441  .00000128  00000+0  29301-3 0  9994
2 49212  87.9241 354.2671 0001356  58.6681 301.4583 13.18684639217506
ONEWEB-0348             
1 49213U 21083AD  26073.56965200  .00000097  00000+0  20562-3 0  9997
2 49213  87.9167 293.3328 0001552  66.4882 293.6414 13.20770500224323
ONEWEB-0350             
1 49214U 21083AE  26073.43194410  .00000175  00000+0  44473-3 0  9995
2 49214  87.9030 339.0716 0001953  70.3055 289.8284 13.13470771218495
ONEWEB-0351             
1 49215U 21083AF  26073.56320543  .00000048  00000+0  84960-4 0  9993
2 49215  87.9168 293.3321 0002497  94.6383 265.5036 13.20771103224280
ONEWEB-0352             
1 49216U 21083AG  26073.48866122  .00000276  00000+0  72114-3 0  9993
2 49216  87.9029 339.0762 0002100  85.1571 274.9798 13.13471117218599
ONEWEB-0354             
1 49217U 21083AH  26073.58858386 -.00000035  00000+0 -11711-3 0  9999
2 49217  87.9165 293.3265 0001722  75.8895 284.2430 13.20769851224323
ONEWEB-0355             
1 49218U 21083AJ  26073.44139144 -.00000058  00000+0 -19346-3 0  9996
2 49218  87.9022 339.0955 0001964  77.4319 282.7030 13.13469480218461
ONEWEB-0357             
1 49219U 21083AK  26073.58542822 -.00000003  00000+0 -40085-4 0  9998
2 49219  87.9165 293.3217 0001802  88.0977 272.0362 13.20769974224323
ONEWEB-0332             
1 49279U 21090A   26073.60422461 -.00000209  00000+0 -59896-3 0  9998
2 49279  87.8980 308.5840 0001703  89.6233 270.5092 13.14502819215156
ONEWEB-0347             
1 49280U 21090B   26073.57596412  .00000050  00000+0  92222-4 0  9997
2 49280  87.9167 293.3322 0001499  94.2924 265.8381 13.20770201218557
ONEWEB-0349             
1 49281U 21090C   26073.60752926  .00000038  00000+0  62513-4 0  9992
2 49281  87.9162 293.3261 0001690  85.5427 274.5899 13.20771174217346
ONEWEB-0353             
1 49282U 21090D   26073.59629342 -.00000167  00000+0 -48507-3 0  9997
2 49282  87.8981 308.5800 0001610  91.6469 268.4845 13.14503145215153
ONEWEB-0356             
1 49283U 21090E   26073.60594496 -.00000007  00000+0 -49660-4 0  9996
2 49283  87.9165 293.3199 0000810  92.3261 267.7965 13.20770300217344
ONEWEB-0358             
1 49284U 21090F   26073.56018475  .00000079  00000+0  16145-3 0  9998
2 49284  87.9168 293.3317 0001574  82.0496 278.0816 13.20770051218067
ONEWEB-0359             
1 49285U 21090G   26073.55702867  .00000082  00000+0  16893-3 0  9997
2 49285  87.9169 293.3294 0001681  76.3591 283.7730 13.20770958218046
ONEWEB-0360             
1 49286U 21090H   26073.54754971  .00000081  00000+0  16843-3 0  9994
2 49286  87.9167 293.3379 0001736  81.9704 278.1627 13.20770748217351
ONEWEB-0361             
1 49287U 21090J   26073.60436688  .00000016  00000+0  85593-5 0  9992
2 49287  87.9164 293.3244 0001450  84.0774 276.0525 13.20769985217810
ONEWEB-0362             
1 49288U 21090K   26073.40623724  .00000098  00000+0  21152-3 0  9999
2 49288  87.9225 323.8667 0001972  80.4620 279.6736 13.19724949214411
ONEWEB-0363             
1 49289U 21090L   26073.62015805  .00000052  00000+0  94832-4 0  9995
2 49289  87.9166 293.3221 0001318  82.0325 278.0958 13.20770954217823
ONEWEB-0364             
1 49290U 21090M   26073.58227850 -.00000037  00000+0 -12277-3 0  9994
2 49290  87.9152 293.3431 0001569  85.1801 274.9512 13.20770540218951
ONEWEB-0365             
1 49291U 21090N   26073.64316471  .00000012  00000+0 -12554-5 0  9992
2 49291  87.9235 323.7992 0001804  83.7972 276.3366 13.19724736213951
ONEWEB-0366             
1 49292U 21090P   26073.59312503 -.00000222  00000+0 -63355-3 0  9996
2 49292  87.8970 308.5898 0001648  80.8722 279.2594 13.14502781215136
ONEWEB-0367             
1 49293U 21090Q   26073.61856957  .00000043  00000+0  73057-4 0  9996
2 49293  87.9165 293.3221 0001880  87.2096 272.9252 13.20770420217348
ONEWEB-0368             
1 49294U 21090R   26073.59173884 -.00000010  00000+0 -57334-4 0  9991
2 49294  87.9155 293.3486 0001332 113.9271 246.2002 13.20770137218494
ONEWEB-0369             
1 49295U 21090S   26073.63842781  .00000128  00000+0  28811-3 0  9991
2 49295  87.9223 323.8179 0001655  83.3526 276.7795 13.19724801213947
ONEWEB-0370             
1 49296U 21090T   26073.62805106  .00000068  00000+0  13421-3 0  9995
2 49296  87.9165 293.3214 0001898  80.3621 279.7727 13.20770582217385
ONEWEB-0371             
1 49297U 21090U   26073.64632671  .00000065  00000+0  12884-3 0  9992
2 49297  87.9224 323.8052 0001817  81.2060 278.9279 13.19724458213983
ONEWEB-0372             
1 49298U 21090V   26073.61686854  .00000059  00000+0  11293-3 0  9998
2 49298  87.9165 293.3241 0001688  89.5922 270.5405 13.20770919217352
ONEWEB-0373             
1 49299U 21090W   26073.56806993  .00000018  00000+0  12185-4 0  9998
2 49299  87.9157 293.3385 0001615  82.6415 277.4901 13.20770853218539
ONEWEB-0374             
1 49300U 21090X   26073.58044023  .00000009  00000+0 -10695-4 0  9996
2 49300  87.8978 308.5769 0001094  81.8858 278.2396 13.14502616215133
ONEWEB-0375             
1 49301U 21090Y   26073.55545305  .00000044  00000+0  77404-4 0  9992
2 49301  87.9169 293.3289 0001243  71.5355 288.5913 13.20770663218036
ONEWEB-0376             
1 49302U 21090Z   26073.64473822  .00000000  00000+0 -31405-4 0  9991
2 49302  87.9236 323.7988 0001807  89.6649 270.4690 13.19724160213988
ONEWEB-0377             
1 49303U 21090AA  26073.61713609  .00000064  00000+0  12667-3 0  9996
2 49303  87.9160 293.3185 0001708  79.2981 280.8344 13.20770518218032
ONEWEB-0378             
1 49304U 21090AB  26073.56346774  .00000057  00000+0  10779-3 0  9990
2 49304  87.9158 293.3395 0001517  84.8932 275.2374 13.20770394217299
ONEWEB-0379             
1 49305U 21090AC  26073.19508899  .00000051  00000+0  10387-3 0  9997
2 49305  87.8982 308.6635 0001521  83.3490 276.7813 13.14503412215086
ONEWEB-0380             
1 49306U 21090AD  26073.64158093  .00000034  00000+0  53387-4 0  9994
2 49306  87.9225 323.8145 0001632  72.3056 287.8255 13.19723955213950
ONEWEB-0381             
1 49307U 21090AE  26073.61383935  .00000064  00000+0  12590-3 0  9990
2 49307  87.9165 293.3233 0001405  81.0725 279.0567 13.20770087217347
ONEWEB-0382             
1 49308U 21090AF  26073.60120811 -.00000002  00000+0 -37477-4 0  9998
2 49308  87.9165 293.3221 0001334  85.7750 274.3536 13.20770062217331
ONEWEB-0383             
1 49309U 21090AG  26073.64545537  .00000220  00000+0  55854-3 0  9997
2 49309  87.8980 308.5600 0001454  84.9737 275.1558 13.14502432215175
ONEWEB-0384             
1 49310U 21090AH  26073.59241552  .00000023  00000+0  23447-4 0  9998
2 49310  87.9168 293.3666 0001146  92.0347 268.0918 13.20807682217348
ONEWEB-0385             
1 49311U 21090AJ  26073.59333280  .00000000  00000+0 -31123-4 0  9995
2 49311  87.9163 293.3284 0001466  88.4535 271.6767 13.20771367217312
ONEWEB-0386             
1 49312U 21090AK  26073.61068706  .00000038  00000+0  60676-4 0  9992
2 49312  87.9167 293.3095 0001386  88.4966 271.6326 13.20770898217337
ONEWEB-0387             
1 49313U 21090AL  26073.59489679  .00000029  00000+0  39098-4 0  9990
2 49313  87.9154 293.3495 0001568  75.0033 285.1274 13.20770272217335
ONEWEB-0388             
1 49314U 21090AM  26073.63683954  .00000060  00000+0  11851-3 0  9999
2 49314  87.9223 323.8126 0001556  80.0284 280.1025 13.19724079213948
